TISAT 1                 
1 36799U 10035E   26068.75703561  .00024554  00000+0  91005-3 0  9996
2 36799  98.0645   6.8512 0001343 159.3030 200.8262 15.27628633852505
STARLINK-31164          
1 58733U 24005F   26068.46504083  .00004947  00000+0  19397-3 0  9994
2 58733  43.0011 220.6476 0001690 274.9327  85.1331 15.26744385120407
